[
    {
        "Altitude(m)": 607911.0139877978,
        "Argument of Periapsis(deg)": 0.0,
        "Eccentricity": 0.0,
        "Inclination(deg)": 60.0,
        "Latitude(deg)": -14.292972136548741,
        "Longitude(deg)": -151.55737275124548,
        "Mean Anomaly(deg)": 196.36359999999996,
        "RAAN(deg)": 120.0,
        "Satellite Name": "Test1 540",
        "Satellite Number": 540,
        "Semi-Major Axis(m)": 6980739.136638005,
        "Time(s)": 0
    },
    {
        "Altitude(m)": 608060.2478246774,
        "Argument of Periapsis(deg)": 0.00010418945913296404,
        "Eccentricity": 0.0,
        "Inclination(deg)": 60.0,
        "Latitude(deg)": -14.826633941981642,
        "Longitude(deg)": -151.26876406522342,
        "Mean Anomaly(deg)": 196.9837061454618,
        "RAAN(deg)": 119.99957995086024,
        "Satellite Name": "Test1 540",
        "Satellite Number": 540,
        "Semi-Major Axis(m)": 6980739.136638005,
        "Time(s)": 10
    }
]